<?xml version="1.0" encoding="UTF-8"?>
<ndm xmlns:xsi="http://www.w3.org/2001/XMLSchema-instance" xsi:noNamespaceSchemaLocation="https://sanaregistry.org/r/ndmxml_unqualified/ndmxml-2.0.0-master-2.0.xsd">
<omm id="CCSDS_OMM_VERS" version="2.0">
<header><CREATION_DATE/><ORIGINATOR/></header><body><segment><metadata><OBJECT_NAME>KUIPER-00061</OBJECT_NAME><OBJECT_ID>2025-134X</OBJECT_ID><CENTER_NAME>EARTH</CENTER_NAME><REF_FRAME>TEME</REF_FRAME><TIME_SYSTEM>UTC</TIME_SYSTEM><MEAN_ELEMENT_THEORY>SGP4</MEAN_ELEMENT_THEORY></metadata><data><meanElements><EPOCH>2026-01-17T12:22:26.576832</EPOCH><MEAN_MOTION>14.79942400</MEAN_MOTION><ECCENTRICITY>.00008176</ECCENTRICITY><INCLINATION>51.9001</INCLINATION><RA_OF_ASC_NODE>94.3783</RA_OF_ASC_NODE><ARG_OF_PERICENTER>107.8540</ARG_OF_PERICENTER><MEAN_ANOMALY>252.2512</MEAN_ANOMALY></meanElements><tleParameters><EPHEMERIS_TYPE>0</EPHEMERIS_TYPE><CLASSIFICATION_TYPE>U</CLASSIFICATION_TYPE><NORAD_CAT_ID>64521</NORAD_CAT_ID><ELEMENT_SET_NO>999</ELEMENT_SET_NO><REV_AT_EPOCH>3255</REV_AT_EPOCH><BSTAR>.15568831E-2</BSTAR><MEAN_MOTION_DOT>.11671E-3</MEAN_MOTION_DOT><MEAN_MOTION_DDOT>0</MEAN_MOTION_DDOT></tleParameters></data></segment></body></omm>
<omm id="CCSDS_OMM_VERS" version="2.0">
<header><CREATION_DATE/><ORIGINATOR/></header><body><segment><metadata><OBJECT_NAME>KUIPER-00062</OBJECT_NAME><OBJECT_ID>2025-134Y</OBJECT_ID><CENTER_NAME>EARTH</CENTER_NAME><REF_FRAME>TEME</REF_FRAME><TIME_SYSTEM>UTC</TIME_SYSTEM><MEAN_ELEMENT_THEORY>SGP4</MEAN_ELEMENT_THEORY></metadata><data><meanElements><EPOCH>2026-01-17T11:36:25.631136</EPOCH><MEAN_MOTION>14.85145984</MEAN_MOTION><ECCENTRICITY>.00073399</ECCENTRICITY><INCLINATION>51.8973</INCLINATION><RA_OF_ASC_NODE>98.1780</RA_OF_ASC_NODE><ARG_OF_PERICENTER>118.3398</ARG_OF_PERICENTER><MEAN_ANOMALY>241.8308</MEAN_ANOMALY></meanElements><tleParameters><EPHEMERIS_TYPE>0</EPHEMERIS_TYPE><CLASSIFICATION_TYPE>U</CLASSIFICATION_TYPE><NORAD_CAT_ID>64522</NORAD_CAT_ID><ELEMENT_SET_NO>999</ELEMENT_SET_NO><REV_AT_EPOCH>3251</REV_AT_EPOCH><BSTAR>.45434308E-3</BSTAR><MEAN_MOTION_DOT>.3697E-4</MEAN_MOTION_DOT><MEAN_MOTION_DDOT>0</MEAN_MOTION_DDOT></tleParameters></data></segment></body></omm>
<omm id="CCSDS_OMM_VERS" version="2.0">
<header><CREATION_DATE/><ORIGINATOR/></header><body><segment><metadata><OBJECT_NAME>KUIPER-00063</OBJECT_NAME><OBJECT_ID>2025-134Z</OBJECT_ID><CENTER_NAME>EARTH</CENTER_NAME><REF_FRAME>TEME</REF_FRAME><TIME_SYSTEM>UTC</TIME_SYSTEM><MEAN_ELEMENT_THEORY>SGP4</MEAN_ELEMENT_THEORY></metadata><data><meanElements><EPOCH>2026-01-17T13:44:06.137664</EPOCH><MEAN_MOTION>14.79928806</MEAN_MOTION><ECCENTRICITY>.00007835</ECCENTRICITY><INCLINATION>51.9022</INCLINATION><RA_OF_ASC_NODE>104.1298</RA_OF_ASC_NODE><ARG_OF_PERICENTER>35.4665</ARG_OF_PERICENTER><MEAN_ANOMALY>324.6349</MEAN_ANOMALY></meanElements><tleParameters><EPHEMERIS_TYPE>0</EPHEMERIS_TYPE><CLASSIFICATION_TYPE>U</CLASSIFICATION_TYPE><NORAD_CAT_ID>64523</NORAD_CAT_ID><ELEMENT_SET_NO>999</ELEMENT_SET_NO><REV_AT_EPOCH>3243</REV_AT_EPOCH><BSTAR>.5991586E-3</BSTAR><MEAN_MOTION_DOT>.4349E-4</MEAN_MOTION_DOT><MEAN_MOTION_DDOT>0</MEAN_MOTION_DDOT></tleParameters></data></segment></body></omm>
<omm id="CCSDS_OMM_VERS" version="2.0">
<header><CREATION_DATE/><ORIGINATOR/></header><body><segment><metadata><OBJECT_NAME>KUIPER-00064</OBJECT_NAME><OBJECT_ID>2025-134AA</OBJECT_ID><CENTER_NAME>EARTH</CENTER_NAME><REF_FRAME>TEME</REF_FRAME><TIME_SYSTEM>UTC</TIME_SYSTEM><MEAN_ELEMENT_THEORY>SGP4</MEAN_ELEMENT_THEORY></metadata><data><meanElements><EPOCH>2026-01-17T12:10:47.347680</EPOCH><MEAN_MOTION>14.80021913</MEAN_MOTION><ECCENTRICITY>.000254</ECCENTRICITY><INCLINATION>51.9040</INCLINATION><RA_OF_ASC_NODE>101.8374</RA_OF_ASC_NODE><ARG_OF_PERICENTER>182.6352</ARG_OF_PERICENTER><MEAN_ANOMALY>177.4597</MEAN_ANOMALY></meanElements><tleParameters><EPHEMERIS_TYPE>0</EPHEMERIS_TYPE><CLASSIFICATION_TYPE>U</CLASSIFICATION_TYPE><NORAD_CAT_ID>64524</NORAD_CAT_ID><ELEMENT_SET_NO>999</ELEMENT_SET_NO><REV_AT_EPOCH>3246</REV_AT_EPOCH><BSTAR>.7935586E-2</BSTAR><MEAN_MOTION_DOT>.60956E-3</MEAN_MOTION_DOT><MEAN_MOTION_DDOT>0</MEAN_MOTION_DDOT></tleParameters></data></segment></body></omm>
<omm id="CCSDS_OMM_VERS" version="2.0">
<header><CREATION_DATE/><ORIGINATOR/></header><body><segment><metadata><OBJECT_NAME>KUIPER-00065</OBJECT_NAME><OBJECT_ID>2025-134AB</OBJECT_ID><CENTER_NAME>EARTH</CENTER_NAME><REF_FRAME>TEME</REF_FRAME><TIME_SYSTEM>UTC</TIME_SYSTEM><MEAN_ELEMENT_THEORY>SGP4</MEAN_ELEMENT_THEORY></metadata><data><meanElements><EPOCH>2026-01-17T10:24:34.604640</EPOCH><MEAN_MOTION>14.80042403</MEAN_MOTION><ECCENTRICITY>.00058031</ECCENTRICITY><INCLINATION>51.9035</INCLINATION><RA_OF_ASC_NODE>107.3082</RA_OF_ASC_NODE><ARG_OF_PERICENTER>114.3423</ARG_OF_PERICENTER><MEAN_ANOMALY>245.8145</MEAN_ANOMALY></meanElements><tleParameters><EPHEMERIS_TYPE>0</EPHEMERIS_TYPE><CLASSIFICATION_TYPE>U</CLASSIFICATION_TYPE><NORAD_CAT_ID>64525</NORAD_CAT_ID><ELEMENT_SET_NO>999</ELEMENT_SET_NO><REV_AT_EPOCH>3236</REV_AT_EPOCH><BSTAR>.63946221E-3</BSTAR><MEAN_MOTION_DOT>.4669E-4</MEAN_MOTION_DOT><MEAN_MOTION_DDOT>0</MEAN_MOTION_DDOT></tleParameters></data></segment></body></omm>
<omm id="CCSDS_OMM_VERS" version="2.0">
<header><CREATION_DATE/><ORIGINATOR/></header><body><segment><metadata><OBJECT_NAME>KUIPER-00066</OBJECT_NAME><OBJECT_ID>2025-134AC</OBJECT_ID><CENTER_NAME>EARTH</CENTER_NAME><REF_FRAME>TEME</REF_FRAME><TIME_SYSTEM>UTC</TIME_SYSTEM><MEAN_ELEMENT_THEORY>SGP4</MEAN_ELEMENT_THEORY></metadata><data><meanElements><EPOCH>2026-01-17T12:06:09.992448</EPOCH><MEAN_MOTION>15.21820352</MEAN_MOTION><ECCENTRICITY>.00010333</ECCENTRICITY><INCLINATION>51.8861</INCLINATION><RA_OF_ASC_NODE>65.9612</RA_OF_ASC_NODE><ARG_OF_PERICENTER>57.2530</ARG_OF_PERICENTER><MEAN_ANOMALY>302.8550</MEAN_ANOMALY></meanElements><tleParameters><EPHEMERIS_TYPE>0</EPHEMERIS_TYPE><CLASSIFICATION_TYPE>U</CLASSIFICATION_TYPE><NORAD_CAT_ID>64526</NORAD_CAT_ID><ELEMENT_SET_NO>999</ELEMENT_SET_NO><REV_AT_EPOCH>3296</REV_AT_EPOCH><BSTAR>.60526429E-3</BSTAR><MEAN_MOTION_DOT>.1363E-3</MEAN_MOTION_DOT><MEAN_MOTION_DDOT>0</MEAN_MOTION_DDOT></tleParameters></data></segment></body></omm>
<omm id="CCSDS_OMM_VERS" version="2.0">
<header><CREATION_DATE/><ORIGINATOR/></header><body><segment><metadata><OBJECT_NAME>KUIPER-00069</OBJECT_NAME><OBJECT_ID>2025-151A</OBJECT_ID><CENTER_NAME>EARTH</CENTER_NAME><REF_FRAME>TEME</REF_FRAME><TIME_SYSTEM>UTC</TIME_SYSTEM><MEAN_ELEMENT_THEORY>SGP4</MEAN_ELEMENT_THEORY></metadata><data><meanElements><EPOCH>2026-01-17T14:15:11.543040</EPOCH><MEAN_MOTION>14.79961880</MEAN_MOTION><ECCENTRICITY>.00036898</ECCENTRICITY><INCLINATION>51.9008</INCLINATION><RA_OF_ASC_NODE>146.5594</RA_OF_ASC_NODE><ARG_OF_PERICENTER>122.9644</ARG_OF_PERICENTER><MEAN_ANOMALY>237.1674</MEAN_ANOMALY></meanElements><tleParameters><EPHEMERIS_TYPE>0</EPHEMERIS_TYPE><CLASSIFICATION_TYPE>U</CLASSIFICATION_TYPE><NORAD_CAT_ID>64816</NORAD_CAT_ID><ELEMENT_SET_NO>999</ELEMENT_SET_NO><REV_AT_EPOCH>2919</REV_AT_EPOCH><BSTAR>.493206E-3</BSTAR><MEAN_MOTION_DOT>.3543E-4</MEAN_MOTION_DOT><MEAN_MOTION_DDOT>0</MEAN_MOTION_DDOT></tleParameters></data></segment></body></omm>
<omm id="CCSDS_OMM_VERS" version="2.0">
<header><CREATION_DATE/><ORIGINATOR/></header><body><segment><metadata><OBJECT_NAME>KUIPER-00070</OBJECT_NAME><OBJECT_ID>2025-151B</OBJECT_ID><CENTER_NAME>EARTH</CENTER_NAME><REF_FRAME>TEME</REF_FRAME><TIME_SYSTEM>UTC</TIME_SYSTEM><MEAN_ELEMENT_THEORY>SGP4</MEAN_ELEMENT_THEORY></metadata><data><meanElements><EPOCH>2026-01-17T03:04:30.173664</EPOCH><MEAN_MOTION>14.79773712</MEAN_MOTION><ECCENTRICITY>.00082677</ECCENTRICITY><INCLINATION>51.8995</INCLINATION><RA_OF_ASC_NODE>173.5673</RA_OF_ASC_NODE><ARG_OF_PERICENTER>94.7223</ARG_OF_PERICENTER><MEAN_ANOMALY>265.4683</MEAN_ANOMALY></meanElements><tleParameters><EPHEMERIS_TYPE>0</EPHEMERIS_TYPE><CLASSIFICATION_TYPE>U</CLASSIFICATION_TYPE><NORAD_CAT_ID>64817</NORAD_CAT_ID><ELEMENT_SET_NO>999</ELEMENT_SET_NO><REV_AT_EPOCH>2878</REV_AT_EPOCH><BSTAR>-.55102416E-2</BSTAR><MEAN_MOTION_DOT>-.41838E-3</MEAN_MOTION_DOT><MEAN_MOTION_DDOT>0</MEAN_MOTION_DDOT></tleParameters></data></segment></body></omm>

</ndm>
