KUIPER-00061            
1 64521U 25134X   26017.51558538  .00011671  00000+0  15569-2 0  9992
2 64521  51.9001  94.3783 0000817 107.8540 252.2512 14.79942400 32555
KUIPER-00062            
1 64522U 25134Y   26017.48362999  .00003697  00000+0  45434-3 0  9997
2 64522  51.8973  98.1780 0007339 118.3398 241.8308 14.85145984 32518
KUIPER-00063            
1 64523U 25134Z   26017.57229326  .00004349  00000+0  59916-3 0  9999
2 64523  51.9022 104.1298 0000783  35.4665 324.6349 14.79928806 32430
KUIPER-00064            
1 64524U 25134AA  26017.50749245  .00060956  00000+0  79356-2 0  9995
2 64524  51.9040 101.8374 0002540 182.6352 177.4597 14.80021913 32468
KUIPER-00065            
1 64525U 25134AB  26017.43373385  .00004669  00000+0  63946-3 0  9994
2 64525  51.9035 107.3082 0005803 114.3423 245.8145 14.80042403 32361
KUIPER-00066            
1 64526U 25134AC  26017.50428232  .00013630  00000+0  60526-3 0  9994
2 64526  51.8861  65.9612 0001033  57.2530 302.8550 15.21820352 32964
KUIPER-00069            
1 64816U 25151A   26017.59388360  .00003543  00000+0  49321-3 0  9993
2 64816  51.9008 146.5594 0003689 122.9644 237.1674 14.79961880 29192
KUIPER-00070            
1 64817U 25151B   26017.12812701 -.00041838  00000+0 -55102-2 0  9998
2 64817  51.8995 173.5673 0008267  94.7223 265.4683 14.79773712 28784
